{
  "type": "FeatureCollection",
  "features": [
    {
      "type": "Feature",
      "properties": {
        "norad_id": 41330,
        "name": "COSMOS 2514 (751)",
        "group": "glo-ops",
        "lat": 56.84417010907816,
        "lon": 94.25238265066665,
        "alt_km": 19132.814620172387,
        "timestamp": "2025-12-10T18:57:00.326426+00:00",
        "meta_object_name": "COSMOS 2514 (751)",
        "meta_object_id": "2016-008A",
        "meta_epoch": "2025-12-10T04:09:27.217152",
        "meta_mean_motion": 2.13102572,
        "meta_eccentricity": 0.0012197,
        "meta_inclination": 65.1353,
        "meta_ra_of_asc_node": 319.4918,
        "meta_arg_of_pericenter": 220.0504,
        "meta_mean_anomaly": 139.8574,
        "meta_ephemeris_type": 0,
        "meta_classification_type": "U",
        "meta_norad_cat_id": 41330,
        "meta_element_set_no": 999,
        "meta_rev_at_epoch": 7659,
        "meta_bstar": 0,
        "meta_mean_motion_dot": -5e-07,
        "meta_mean_motion_ddot": 0,
        "tle_line1": "1 41330U 16008A   25344.17323168 -.00000050  00000+0  00000+0 0  9999",
        "tle_line2": "2 41330  65.1353 319.4918 0012197 220.0504 139.8574  2.13102572 76591"
      },
      "geometry": {
        "type": "Point",
        "coordinates": [
          94.25238265066665,
          56.84417010907816
        ]
      }
    },
    {
      "type": "Feature",
      "properties": {
        "norad_id": 42939,
        "name": "COSMOS 2522 (752)",
        "group": "glo-ops",
        "lat": -48.83430224598688,
        "lon": 52.0983297538678,
        "alt_km": 19118.96359599738,
        "timestamp": "2025-12-10T18:57:00.326437+00:00",
        "meta_object_name": "COSMOS 2522 (752)",
        "meta_object_id": "2017-055A",
        "meta_epoch": "2025-12-10T00:16:43.890240",
        "meta_mean_motion": 2.13101818,
        "meta_eccentricity": 0.0006628,
        "meta_inclination": 64.076,
        "meta_ra_of_asc_node": 198.322,
        "meta_arg_of_pericenter": 225.9279,
        "meta_mean_anomaly": 134.088,
        "meta_ephemeris_type": 0,
        "meta_classification_type": "U",
        "meta_norad_cat_id": 42939,
        "meta_element_set_no": 999,
        "meta_rev_at_epoch": 6394,
        "meta_bstar": 0,
        "meta_mean_motion_dot": 4.5e-07,
        "meta_mean_motion_ddot": 0,
        "tle_line1": "1 42939U 17055A   25344.01161910  .00000045  00000+0  00000+0 0  9999",
        "tle_line2": "2 42939  64.0760 198.3220 0006628 225.9279 134.0880  2.13101818 63946"
      },
      "geometry": {
        "type": "Point",
        "coordinates": [
          52.0983297538678,
          -48.83430224598688
        ]
      }
    },
    {
      "type": "Feature",
      "properties": {
        "norad_id": 43508,
        "name": "COSMOS 2527 (756)",
        "group": "glo-ops",
        "lat": -65.3116291394238,
        "lon": -17.130513838925907,
        "alt_km": 19120.37062885048,
        "timestamp": "2025-12-10T18:57:00.326447+00:00",
        "meta_object_name": "COSMOS 2527 (756)",
        "meta_object_id": "2018-053A",
        "meta_epoch": "2025-12-10T10:35:59.703936",
        "meta_mean_motion": 2.13102031,
        "meta_eccentricity": 0.0008586,
        "meta_inclination": 65.4714,
        "meta_ra_of_asc_node": 80.2084,
        "meta_arg_of_pericenter": 224.5475,
        "meta_mean_anomaly": 135.4001,
        "meta_ephemeris_type": 0,
        "meta_classification_type": "U",
        "meta_norad_cat_id": 43508,
        "meta_element_set_no": 999,
        "meta_rev_at_epoch": 5825,
        "meta_bstar": 0,
        "meta_mean_motion_dot": -1.9e-07,
        "meta_mean_motion_ddot": 0,
        "tle_line1": "1 43508U 18053A   25344.44166324 -.00000019  00000+0  00000+0 0  9994",
        "tle_line2": "2 43508  65.4714  80.2084 0008586 224.5475 135.4001  2.13102031 58254"
      },
      "geometry": {
        "type": "Point",
        "coordinates": [
          -17.130513838925907,
          -65.3116291394238
        ]
      }
    },
    {
      "type": "Feature",
      "properties": {
        "norad_id": 43687,
        "name": "COSMOS 2529 (757)",
        "group": "glo-ops",
        "lat": -10.86570545302255,
        "lon": 24.263490470997006,
        "alt_km": 19123.115164027127,
        "timestamp": "2025-12-10T18:57:00.326458+00:00",
        "meta_object_name": "COSMOS 2529 (757)",
        "meta_object_id": "2018-086A",
        "meta_epoch": "2025-12-10T01:40:33.584160",
        "meta_mean_motion": 2.13101882,
        "meta_eccentricity": 0.0007287,
        "meta_inclination": 64.2919,
        "meta_ra_of_asc_node": 198.9786,
        "meta_arg_of_pericenter": 254.1993,
        "meta_mean_anomaly": 105.7913,
        "meta_ephemeris_type": 0,
        "meta_classification_type": "U",
        "meta_norad_cat_id": 43687,
        "meta_element_set_no": 999,
        "meta_rev_at_epoch": 5525,
        "meta_bstar": 0,
        "meta_mean_motion_dot": 4.4e-07,
        "meta_mean_motion_ddot": 0,
        "tle_line1": "1 43687U 18086A   25344.06983315  .00000044  00000+0  00000+0 0  9990",
        "tle_line2": "2 43687  64.2919 198.9786 0007287 254.1993 105.7913  2.13101882 55255"
      },
      "geometry": {
        "type": "Point",
        "coordinates": [
          24.263490470997006,
          -10.86570545302255
        ]
      }
    },
    {
      "type": "Feature",
      "properties": {
        "norad_id": 44299,
        "name": "COSMOS 2534 (758)",
        "group": "glo-ops",
        "lat": -29.763968946611794,
        "lon": -176.97546040720167,
        "alt_km": 19117.195076498723,
        "timestamp": "2025-12-10T18:57:00.326470+00:00",
        "meta_object_name": "COSMOS 2534 (758)",
        "meta_object_id": "2019-030A",
        "meta_epoch": "2025-12-09T05:29:56.087232",
        "meta_mean_motion": 2.13102103,
        "meta_eccentricity": 0.00090056,
        "meta_inclination": 64.3653,
        "meta_ra_of_asc_node": 199.0114,
        "meta_arg_of_pericenter": 283.3894,
        "meta_mean_anomaly": 286.0531,
        "meta_ephemeris_type": 0,
        "meta_classification_type": "U",
        "meta_norad_cat_id": 44299,
        "meta_element_set_no": 999,
        "meta_rev_at_epoch": 5087,
        "meta_bstar": 0,
        "meta_mean_motion_dot": 4.4e-07,
        "meta_mean_motion_ddot": 0,
        "tle_line1": "1 44299U 19030A   25343.22912138  .00000044  00000+0  00000+0 0  9992",
        "tle_line2": "2 44299  64.3653 199.0114 0009005 283.3894 286.0531  2.13102103 50871"
      },
      "geometry": {
        "type": "Point",
        "coordinates": [
          -176.97546040720167,
          -29.763968946611794
        ]
      }
    },
    {
      "type": "Feature",
      "properties": {
        "norad_id": 44850,
        "name": "COSMOS 2544 (759)",
        "group": "glo-ops",
        "lat": -44.63038197400549,
        "lon": 53.262260072673456,
        "alt_km": 19118.088356669614,
        "timestamp": "2025-12-10T18:57:00.326481+00:00",
        "meta_object_name": "COSMOS 2544 (759)",
        "meta_object_id": "2019-088A",
        "meta_epoch": "2025-12-09T10:44:40.843680",
        "meta_mean_motion": 2.13101756,
        "meta_eccentricity": 0.0013649,
        "meta_inclination": 65.4583,
        "meta_ra_of_asc_node": 80.0686,
        "meta_arg_of_pericenter": 249.1242,
        "meta_mean_anomaly": 110.7462,
        "meta_ephemeris_type": 0,
        "meta_classification_type": "U",
        "meta_norad_cat_id": 44850,
        "meta_element_set_no": 999,
        "meta_rev_at_epoch": 4667,
        "meta_bstar": 0,
        "meta_mean_motion_dot": -1.3e-07,
        "meta_mean_motion_ddot": 0,
        "tle_line1": "1 44850U 19088A   25343.44769495 -.00000013  00000+0  00000+0 0  9995",
        "tle_line2": "2 44850  65.4583  80.0686 0013649 249.1242 110.7462  2.13101756 46679"
      },
      "geometry": {
        "type": "Point",
        "coordinates": [
          53.262260072673456,
          -44.63038197400549
        ]
      }
    },
    {
      "type": "Feature",
      "properties": {
        "norad_id": 45358,
        "name": "COSMOS 2545 (760)",
        "group": "glo-ops",
        "lat": 18.823727230042202,
        "lon": 129.65407832761377,
        "alt_km": 19127.798809210817,
        "timestamp": "2025-12-10T18:57:00.326492+00:00",
        "meta_object_name": "COSMOS 2545 (760)",
        "meta_object_id": "2020-018A",
        "meta_epoch": "2025-12-10T02:42:20.782656",
        "meta_mean_motion": 2.13102243,
        "meta_eccentricity": 0.00118681,
        "meta_inclination": 64.4713,
        "meta_ra_of_asc_node": 319.0621,
        "meta_arg_of_pericenter": 248.8052,
        "meta_mean_anomaly": 111.0655,
        "meta_ephemeris_type": 0,
        "meta_classification_type": "U",
        "meta_norad_cat_id": 45358,
        "meta_element_set_no": 999,
        "meta_rev_at_epoch": 4463,
        "meta_bstar": 0,
        "meta_mean_motion_dot": -5.1e-07,
        "meta_mean_motion_ddot": 0,
        "tle_line1": "1 45358U 20018A   25344.11274054 -.00000051  00000+0  00000+0 0  9993",
        "tle_line2": "2 45358  64.4713 319.0621 0011868 248.8052 111.0655  2.13102243 44631"
      },
      "geometry": {
        "type": "Point",
        "coordinates": [
          129.65407832761377,
          18.823727230042202
        ]
      }
    }
  ]
}